GLOBALSTAR M084         
1 38040U 11080A   24333.96888372 -.00000079  00000+0  13889-3 0  9999
2 38040  52.0018 298.0113 0000597  25.9520  14.7677 12.62271368597383
GLOBALSTAR M080         
1 38041U 11080B   24334.97235469 -.00000094  00000+0  56667-4 0  9994
2 38041  52.0069 296.4943 0000525   0.6083  41.5838 12.62269191597634
GLOBALSTAR M082         
1 38042U 11080C   24334.29478134 -.00000074  00000+0  16769-3 0  9994
2 38042  52.0074 253.9818 0001182  80.4955  61.5255 12.62270168598423
GLOBALSTAR M092         
1 38043U 11080D   24334.74995231 -.00000086  00000+0  99901-4 0  9990
2 38043  52.0104 342.9617 0000383  61.6256 109.8884 12.62269876596764
GLOBALSTAR M090         
1 38044U 11080E   24333.82325506 -.00000074  00000+0  16461-3 0  9997
2 38044  51.9862 249.4814 0000715  81.8973 316.9383 12.62264962598312
GLOBALSTAR M086         
1 38045U 11080F   24334.87650398 -.00000072  00000+0  17958-3 0  9994
2 38045  51.9894 246.8103 0000103 178.9911 208.7785 12.62263902598396
GLOBALSTAR M097         
1 39072U 13005A   24334.89722730 -.00000067  00000+0  20461-3 0  9993
2 39072  52.0016 161.0933 0001021 105.6014 254.4965 12.62267983545646
GLOBALSTAR M093         
1 39073U 13005B   24334.87034803 -.00000076  00000+0  15259-3 0  9998
2 39073  51.9782 154.7937 0001131 108.3003 251.7986 12.62276883545594
